#dP2023  9 22  6  0  0.00000000      96 __u+U ITR00 EXT  IAC
## 2280 453600.00000000   900.00000000 60209 0.2500000000000
+  120   C06C07C08C09C10C11C12C13C14C16C19C20C21C22C23C24C25
+        C26C27C28C29C30C32C33C34C35C36C37C38C39C40C41C42C43
+        C44C45C46E02E03E04E05E07E08E09E10E11E12E13E14E15E18
+        E19E21E24E25E26E27E30E31E33E34E36G01G02G03G04G05G06
+        G07G08G09G10G11G12G13G14G15G16G17G18G19G20G21G22G23
+        G24G25G26G27G28G29G30G31G32J02J03J04R01R02R03R04R05
+        R07R08R09R11R12R13R14R15R16R17R18R19R20R21R22R24R25
+        R26  0  0  0  0  0  0  0  0  0  0  0  0  0  0  0  0
++        13  8 11 10  7  8  7 10  8 11  9  7  8  8  8  7  7
++         8  8  9  9  8  9  9  7  9  9  9  9  8  9  8  8  9
++         9  8  8  8  7  7  7  7  7  8  7  7  7  8  7  7  8
++         8  9  7  8  8  8  8  8  8  7  7  8  7  6  7  7  7
++         9  7  7  7  7  7  7  8  7  7  7  7  7  7  7  6  7
++         7  7  7  8  8  8  9  8  7  8  8  9  7  7  9  8  7
++         8  9  8  7  8  8  6  8  7  9  9  9 10  9  7  8  8
++         9  0  0  0  0  0  0  0  0  0  0  0  0  0  0  0  0
%c M  cc GPS ccc cccc cccc cccc cccc ccccc ccccc ccccc ccccc
%c cc cc ccc ccc cccc cccc cccc cccc ccccc ccccc ccccc ccccc
%f  0.0000000  0.000000000  0.00000000000  0.000000000000000
%f  0.0000000  0.000000000  0.00000000000  0.000000000000000
%i    0    0    0    0      0      0      0      0         0
%i    0    0    0    0      0      0      0      0         0
/* IAC                                ULTRA-RAPID PREDICTION
/* S/V CLOCKS ARE ALIGNED TO GNSS TIME                      
/* G:C1WC2W R:C1PC2P E:C1XC5X C:C2IC6I J:C1CC2S             
/* PCV:IGS20_2280 OL/AL:FES2004  NONE     YN ORB:CoN CLK:CoN
*  2023 09 22 13 30  0.00000000
PC06 -17338.739884  30378.672015  23371.994826     44.595293
PC07  -6568.921788  38990.543539  15019.846384    -44.351987
PC08  -3979.234332  20653.911674 -36542.545857    333.258895
PC09 -10313.404390  29171.470311  28803.466184    134.161305
PC10   -546.398902  41579.887808   8913.714133   -186.802120
PC11 -16572.747087  -4090.142346  22153.248571      9.650732
PC12   -794.299412 -18857.411514  20589.870583    927.619733
PC13   2819.625340  24117.706253 -34271.859248    356.015524
PC14 -16702.095218 -14481.092985 -16994.447966    452.250478
PC16 -21974.707376  29956.708145  19879.615159    -91.797309
PC19  16871.652702   4338.743128  21819.291538   -970.487481
PC20  14428.857913  21231.465944  10978.123747    263.279089
PC21  -2970.384261 -26709.331444   7486.144624   -970.821273
PC22   9749.747312 -15981.617513  20675.856318   -296.815401
PC23 -19864.531690   8572.194158  17637.744133   -864.422090
PC24 -19046.828328 -14739.919668 -14127.818321    418.915817
PC25 -27550.620053  -3125.233467   3251.424079    216.829794
PC26   -926.271685 -16627.662678 -22409.312714   -181.306403
PC27  -6718.775996  22491.706514 -15105.792886    202.908241
PC28 -19156.516475  20299.584694     45.151583    152.348794
PC29  21066.442681  -5649.474971 -17408.721271    177.957875
PC30   9925.283373  12819.053197 -22717.951962     -5.300537
PC32   3111.469866  26678.950992  -7581.208815   -528.279301
PC33 -16929.337547  -4326.200501 -21761.120608   -965.701524
PC34 -11084.381856 -11658.924955  22792.568706    265.088615
PC35  18434.460811 -20973.441801   -118.210624    541.073292
PC36  27449.240207   4342.993259  -2443.310000   -213.968166
PC37   -477.181087  16494.653589  22517.093792   -833.641786
PC38 -13276.786986  18897.824795 -35264.127856    106.440140
PC39 -25050.165269  30546.562463  14427.192616     -4.891997
PC40 -11091.457113  36314.545276  18638.875221    -37.420791
PC41 -10120.910503  15368.882400 -20936.215811   -876.747263
PC42 -13875.350743 -22194.043830  -9611.452288   -540.515123
PC43 -20887.302011   4707.999949  17881.519395     40.846269
PC44   6002.822928 -22849.745795  14859.579501    239.265280
PC45  19384.677383  -8785.678161 -18033.535363    -28.310783
PC46  20008.252100  14237.690327  13217.357447    -86.217804
PE02  -9082.693068  14478.664066  24169.236540     64.681809
PE03 -12940.906780  25283.529966  -8361.869175    -58.349870
PE04    224.954123 -27823.849828 -10097.136873   -217.791943
PE05 -18141.057460   8028.486882 -21971.608285     20.721885
PE07  12541.226245  14368.172730  22638.357477    -76.708705
PE08   -599.730311  27961.285336   9704.117844   -150.181420
PE09 -12362.136024 -14447.202553 -22686.041827   -165.431930
PE10 -11665.305930 -12823.034894  23987.575297   -565.646542
PE11 -21537.839556  -7039.796568  19033.298186   2973.926149
PE12   -958.814705 -16263.092609  24709.197252   -707.660009
PE13  20956.907640   7412.847873 -19541.517501    -19.695722
PE14  -7841.060893 -16332.337616  15228.424815    347.676075
PE15    459.363611  16289.412643 -24707.131984    -55.278875
PE18   8932.536444  23888.127541 -19790.132282    560.364192
PE19  14180.616161 -23709.961998  10631.944584  -1578.217920
PE21  21738.132437   2516.788521 -19925.478711   -554.101245
PE24 -22169.454099 -19343.607681   3339.861179   -335.521411
PE25 -21889.098303  -2858.498508  19733.303554     -2.180313
PE26  28870.004786  -6081.742355  -2302.689660    229.930846
PE27  22419.329039  18921.452080  -3897.118463   -156.313779
PE30   9433.161912  23993.853117  14529.359277   -520.665852
PE31  -9909.874398 -23990.740595 -14217.356924     -5.702918
PE33  20504.985771 -15314.777285  14858.075321     -0.278483
PE34 -19985.775045  15550.024271 -15349.804709    -68.411711
PE36 -28897.024453   5669.997323   3018.784164   -119.767201
PG01   2073.650057  14600.268444 -22421.084652    164.929217
PG02  -5559.665071  16214.087962 -19739.659474   -550.940655
PG03  10104.278899  21773.384816 -11634.025126   -121.232661
PG04   1092.169650  23595.850562  12026.987517    163.409513
PG05   3233.035204 -16355.109523  20470.962886   -143.694383
PG06  26006.599248  -5567.843816   -861.842563    545.533280
PG07  19075.506800   8071.735485  17360.441764     60.283923
PG08  -5186.561430  25754.934895  -1976.802830   -143.525518
PG09   8647.984180  17282.015073  18113.628132    -52.807865
PG10 -20820.827537  -7185.818154 -14895.120965    -54.402722
PG11  20432.824632 -12247.894911  11703.365758   -380.955082
PG12  -5666.493317 -22001.909422 -14092.886738   -427.645502
PG13  13430.869654 -22258.252993   4656.477093    575.541205
PG14  21266.831545  10195.518824 -12356.937977    192.480158
PG15   1167.293689 -26258.776423  -3258.228949     79.979475
PG16  -9487.849325  11918.197628  21408.364674   -450.411309
PG17  15256.837900    466.569381 -21313.895364    723.837631
PG18 -20513.673419  -6296.253890  15773.938671   -425.594872
PG19  17073.942768  -7723.361850 -18884.667616    374.965710
PG20  13368.516115  -8946.036900  21146.295003    410.579316
PG21  -7981.797880  16357.754701 -18480.598463    148.387303
PG22  18996.744873   4265.714042 -17476.916597    116.906076
PG23 -20645.595775 -16360.514181  -4075.513122     71.956980
PG24   2104.163456 -16901.837045 -20672.507076   -326.501498
PG25 -17041.650160 -20368.509382  -3131.287133    469.072584
PG26 -17441.726588   3891.375054  19627.703179    227.222890
PG27 -12746.360707  20910.646120   9490.426914    -43.616017
PG28 -25880.637321   5139.375191  -3069.487153    -13.460619
PG29  -6971.399888 -17490.653225  18645.140159   -609.525542
PG30  25044.774774    999.548394   9299.116357   -485.482255
PG31 -23879.216904  10093.543129   6523.060064   -223.715928
PG32 -16068.716350   4300.903100 -20478.454265   -561.882816
PJ02 -26254.120915  21995.908499  29691.981782     -4.426659
PJ03 -35774.151990  21330.751356  -2146.278010     -3.296440
PJ04 -19490.097163  28103.952114 -19554.581210     70.724815
PR01  -5158.359721  18811.442717 -16447.682014     66.188588
PR02   2945.577882  25298.651074    287.016547    -22.398191
PR03   9808.930192  16931.822152  16365.623689     85.703842
PR04  10779.948165   -374.984023  23137.000926    203.854367
PR05   6211.715461 -17595.367116  17411.857453    119.425837
PR07  -9944.097055 -16370.582479 -16843.342513     65.236096
PR08 -10850.231782    610.673720 -23025.627651    -72.620475
PR09  -7677.675634 -13693.457624 -20057.435940    143.659713
PR11 -23244.026464  -4727.814533   9373.242147   -171.629414
PR12 -10920.566148   6876.247705  22034.004342     31.565535
PR13   5515.340778  13190.455837  21114.892558    -39.452930
PR14  21295.091017  12327.171994   6780.630322     25.301392
PR15  22853.659562   4113.605732 -10541.171236     85.991450
PR16  11128.002768  -6623.639008 -21969.018954     18.939163
PR17  11123.433606   4510.618027 -22490.145638     19.338582
PR18  20614.092325  -7782.299722 -12869.989650    103.210887
PR19  20550.583398 -14985.206462   1848.409859   -248.185485
PR20   6446.573894 -14930.378017  19671.877967   -100.498896
PR21 -11866.681861  -3783.189334  22267.900204    -39.942447
PR22 -21219.550060   7554.743444  11993.732851     85.309841
PR24  -5102.774456  15266.003467 -19779.136659    -25.364684
PR25 -11126.256027  -5221.847789  22361.507680     31.712333
PR26 -10901.399510    248.188437 -23044.412913    -23.072756
EOF
